[{"OBJECT_NAME":"STARLINK-5487","OBJECT_ID":"2023-021AA","EPOCH":"2026-03-09T16:39:13.019616","MEAN_MOTION":14.98333844,"ECCENTRICITY":0.00031461,"INCLINATION":70.0013,"RA_OF_ASC_NODE":184.3814,"ARG_OF_PERICENTER":267.4295,"MEAN_ANOMALY":92.6504,"EPHEMERIS_TYPE":0,"CLASSIFICATION_TYPE":"U","NORAD_CAT_ID":55652,"ELEMENT_SET_NO":999,"REV_AT_EPOCH":16879,"BSTAR":3.2877177e-5,"MEAN_MOTION_DOT":2.99e-6,"MEAN_MOTION_DDOT":0},{"OBJECT_NAME":"KORSAT-3","OBJECT_ID":"2025-081A","EPOCH":"2026-03-09T21:24:50.510592","MEAN_MOTION":14.99637968,"ECCENTRICITY":0.00099231,"INCLINATION":45.4106,"RA_OF_ASC_NODE":130.6437,"ARG_OF_PERICENTER":32.4345,"MEAN_ANOMALY":327.7142,"EPHEMERIS_TYPE":0,"CLASSIFICATION_TYPE":"U","NORAD_CAT_ID":63630,"ELEMENT_SET_NO":999,"REV_AT_EPOCH":4828,"BSTAR":0.00043193523,"MEAN_MOTION_DOT":5.176e-5,"MEAN_MOTION_DDOT":0}]
